ONEWEB-0414             
1 50491U 21132Y   25272.23113137  .00000036  00000+0  58432-4 0  9991
2 50491  87.9215  27.2507 0001568  90.2822 269.8490 13.18685205187237
ONEWEB-0417             
1 50492U 21132Z   25271.85999425  .00000058  00000+0  11332-3 0  9992
2 50492  87.9215  27.3575 0001899  92.8092 267.3257 13.18685473187161
ONEWEB-0418             
1 50493U 21132AA  25272.24914589  .00000080  00000+0  16963-3 0  9995
2 50493  87.9216  27.2657 0002165  90.0851 270.0529 13.18686394187271
ONEWEB-0419             
1 50494U 21132AB  25271.88804419  .00000635  00000+0  15776-2 0  9991
2 50494  87.9210  27.3380 0001206 106.8649 253.2615 13.18684089187140
ONEWEB-0420             
1 50495U 21132AC  25272.23277983  .00000041  00000+0  71697-4 0  9999
2 50495  87.9214  27.2802 0001384 104.3522 255.7764 13.18684968187185
ONEWEB-0421             
1 50496U 21132AD  25271.84680138  .00000140  00000+0  32185-3 0  9994
2 50496  87.9215  27.3503 0001488  90.4259 269.7044 13.18686565187173
ONEWEB-0424             
1 50497U 21132AE  25272.26246815  .00000127  00000+0  28857-3 0  9998
2 50497  87.9218  27.2631 0002086 106.2040 253.9322 13.18687422187253
ONEWEB-0426             
1 50498U 21132AF  25272.22288958  .00000020  00000+0  17472-4 0  9993
2 50498  87.9215  27.2624 0001836  75.4200 284.7136 13.18685461187199
